{
  "type": "FeatureCollection",
  "features": [
    {
      "type": "Feature",
      "properties": {
        "norad_id": 34022,
        "name": "COSMOS 2251 DEB",
        "group": "cosmos-2251-debris",
        "lat": 37.21554181000304,
        "lon": 92.8552875693342,
        "alt_km": 772.682161416561,
        "timestamp": "2025-12-04T19:33:59.992898+00:00",
        "meta_object_name": "COSMOS 2251 DEB",
        "meta_object_id": "1993-036HH",
        "meta_epoch": "2025-12-04T07:48:14.112576",
        "meta_mean_motion": 14.38942659,
        "meta_eccentricity": 0.00224116,
        "meta_inclination": 74.0538,
        "meta_ra_of_asc_node": 286.2993,
        "meta_arg_of_pericenter": 352.8277,
        "meta_mean_anomaly": 130.1128,
        "meta_ephemeris_type": 0,
        "meta_classification_type": "U",
        "meta_norad_cat_id": 34022,
        "meta_element_set_no": 999,
        "meta_rev_at_epoch": 88074,
        "meta_bstar": 0.00049909821,
        "meta_mean_motion_dot": 1.517e-05,
        "meta_mean_motion_ddot": 0,
        "tle_line1": "1 34022U 93036HH  25338.32516334  .00001517  00000+0  49910-3 0  9999",
        "tle_line2": "2 34022  74.0538 286.2993 0022411 352.8277 130.1128 14.38942659880747"
      },
      "geometry": {
        "type": "Point",
        "coordinates": [
          92.8552875693342,
          37.21554181000304
        ]
      }
    },
    {
      "type": "Feature",
      "properties": {
        "norad_id": 34023,
        "name": "COSMOS 2251 DEB",
        "group": "cosmos-2251-debris",
        "lat": 14.108712727597526,
        "lon": -89.46314092291011,
        "alt_km": 744.6908547240628,
        "timestamp": "2025-12-04T19:33:59.992907+00:00",
        "meta_object_name": "COSMOS 2251 DEB",
        "meta_object_id": "1993-036HJ",
        "meta_epoch": "2025-12-04T06:44:32.706240",
        "meta_mean_motion": 14.40531719,
        "meta_eccentricity": 0.00180921,
        "meta_inclination": 74.0248,
        "meta_ra_of_asc_node": 267.3964,
        "meta_arg_of_pericenter": 4.4224,
        "meta_mean_anomaly": 120.3898,
        "meta_ephemeris_type": 0,
        "meta_classification_type": "U",
        "meta_norad_cat_id": 34023,
        "meta_element_set_no": 999,
        "meta_rev_at_epoch": 88092,
        "meta_bstar": 0.00071798214,
        "meta_mean_motion_dot": 2.264e-05,
        "meta_mean_motion_ddot": 0,
        "tle_line1": "1 34023U 93036HJ  25338.28093410  .00002264  00000+0  71798-3 0  9999",
        "tle_line2": "2 34023  74.0248 267.3964 0018092   4.4224 120.3898 14.40531719880925"
      },
      "geometry": {
        "type": "Point",
        "coordinates": [
          -89.46314092291011,
          14.108712727597526
        ]
      }
    },
    {
      "type": "Feature",
      "properties": {
        "norad_id": 34024,
        "name": "COSMOS 2251 DEB",
        "group": "cosmos-2251-debris",
        "lat": 8.170855163334435,
        "lon": 148.16544941994724,
        "alt_km": 787.7910104494458,
        "timestamp": "2025-12-04T19:33:59.992916+00:00",
        "meta_object_name": "COSMOS 2251 DEB",
        "meta_object_id": "1993-036HK",
        "meta_epoch": "2025-12-03T18:30:19.565856",
        "meta_mean_motion": 14.35379381,
        "meta_eccentricity": 0.00206241,
        "meta_inclination": 74.0462,
        "meta_ra_of_asc_node": 332.4325,
        "meta_arg_of_pericenter": 25.5346,
        "meta_mean_anomaly": 152.0381,
        "meta_ephemeris_type": 0,
        "meta_classification_type": "U",
        "meta_norad_cat_id": 34024,
        "meta_element_set_no": 999,
        "meta_rev_at_epoch": 87895,
        "meta_bstar": 0.00029056085,
        "meta_mean_motion_dot": 8.1e-06,
        "meta_mean_motion_ddot": 0,
        "tle_line1": "1 34024U 93036HK  25337.77105979  .00000810  00000+0  29056-3 0  9992",
        "tle_line2": "2 34024  74.0462 332.4325 0020624  25.5346 152.0381 14.35379381878950"
      },
      "geometry": {
        "type": "Point",
        "coordinates": [
          148.16544941994724,
          8.170855163334435
        ]
      }
    },
    {
      "type": "Feature",
      "properties": {
        "norad_id": 34026,
        "name": "COSMOS 2251 DEB",
        "group": "cosmos-2251-debris",
        "lat": -69.66675068018012,
        "lon": -137.7082637985006,
        "alt_km": 810.1462981099576,
        "timestamp": "2025-12-04T19:33:59.992925+00:00",
        "meta_object_name": "COSMOS 2251 DEB",
        "meta_object_id": "1993-036HM",
        "meta_epoch": "2025-12-03T11:29:01.814208",
        "meta_mean_motion": 13.65279023,
        "meta_eccentricity": 0.03512242,
        "meta_inclination": 73.7673,
        "meta_ra_of_asc_node": 352.6869,
        "meta_arg_of_pericenter": 224.0439,
        "meta_mean_anomaly": 303.3294,
        "meta_ephemeris_type": 0,
        "meta_classification_type": "U",
        "meta_norad_cat_id": 34026,
        "meta_element_set_no": 999,
        "meta_rev_at_epoch": 83405,
        "meta_bstar": 0.0013492976,
        "meta_mean_motion_dot": 1.647e-05,
        "meta_mean_motion_ddot": 0,
        "tle_line1": "1 34026U 93036HM  25337.47849322  .00001647  00000+0  13493-2 0  9994",
        "tle_line2": "2 34026  73.7673 352.6869 0351224 224.0439 303.3294 13.65279023834052"
      },
      "geometry": {
        "type": "Point",
        "coordinates": [
          -137.7082637985006,
          -69.66675068018012
        ]
      }
    },
    {
      "type": "Feature",
      "properties": {
        "norad_id": 34028,
        "name": "COSMOS 2251 DEB",
        "group": "cosmos-2251-debris",
        "lat": 70.33135789067205,
        "lon": 125.41542967814632,
        "alt_km": 839.694970032635,
        "timestamp": "2025-12-04T19:33:59.992936+00:00",
        "meta_object_name": "COSMOS 2251 DEB",
        "meta_object_id": "1993-036HP",
        "meta_epoch": "2025-12-04T04:53:04.128000",
        "meta_mean_motion": 13.20616418,
        "meta_eccentricity": 0.05440673,
        "meta_inclination": 73.8835,
        "meta_ra_of_asc_node": 0.3379,
        "meta_arg_of_pericenter": 139.6439,
        "meta_mean_anomaly": 298.0115,
        "meta_ephemeris_type": 0,
        "meta_classification_type": "U",
        "meta_norad_cat_id": 34028,
        "meta_element_set_no": 999,
        "meta_rev_at_epoch": 80895,
        "meta_bstar": 0.00030377181,
        "meta_mean_motion_dot": 2.51e-06,
        "meta_mean_motion_ddot": 0,
        "tle_line1": "1 34028U 93036HP  25338.20352000  .00000251  00000+0  30377-3 0  9991",
        "tle_line2": "2 34028  73.8835   0.3379 0544067 139.6439 298.0115 13.20616418808954"
      },
      "geometry": {
        "type": "Point",
        "coordinates": [
          125.41542967814632,
          70.33135789067205
        ]
      }
    },
    {
      "type": "Feature",
      "properties": {
        "norad_id": 34031,
        "name": "COSMOS 2251 DEB",
        "group": "cosmos-2251-debris",
        "lat": 26.7192490730513,
        "lon": 159.1394151905429,
        "alt_km": 700.6284867580025,
        "timestamp": "2025-12-04T19:33:59.992945+00:00",
        "meta_object_name": "COSMOS 2251 DEB",
        "meta_object_id": "1993-036HS",
        "meta_epoch": "2025-12-03T18:49:51.728736",
        "meta_mean_motion": 14.59508576,
        "meta_eccentricity": 0.0022927,
        "meta_inclination": 74.0115,
        "meta_ra_of_asc_node": 152.8085,
        "meta_arg_of_pericenter": 273.4164,
        "meta_mean_anomaly": 101.2427,
        "meta_ephemeris_type": 0,
        "meta_classification_type": "U",
        "meta_norad_cat_id": 34031,
        "meta_element_set_no": 999,
        "meta_rev_at_epoch": 88435,
        "meta_bstar": 0.0018509622,
        "meta_mean_motion_dot": 8.801e-05,
        "meta_mean_motion_ddot": 0,
        "tle_line1": "1 34031U 93036HS  25337.78462649  .00008801  00000+0  18510-2 0  9991",
        "tle_line2": "2 34031  74.0115 152.8085 0022927 273.4164 101.2427 14.59508576884354"
      },
      "geometry": {
        "type": "Point",
        "coordinates": [
          159.1394151905429,
          26.7192490730513
        ]
      }
    },
    {
      "type": "Feature",
      "properties": {
        "norad_id": 34035,
        "name": "COSMOS 2251 DEB",
        "group": "cosmos-2251-debris",
        "lat": 49.2626688221259,
        "lon": 23.413586076797227,
        "alt_km": 692.6083822646051,
        "timestamp": "2025-12-04T19:33:59.992953+00:00",
        "meta_object_name": "COSMOS 2251 DEB",
        "meta_object_id": "1993-036HW",
        "meta_epoch": "2025-12-04T04:57:23.221728",
        "meta_mean_motion": 14.51777673,
        "meta_eccentricity": 0.00441395,
        "meta_inclination": 74.0658,
        "meta_ra_of_asc_node": 5.185,
        "meta_arg_of_pericenter": 8.7528,
        "meta_mean_anomaly": 102.6253,
        "meta_ephemeris_type": 0,
        "meta_classification_type": "U",
        "meta_norad_cat_id": 34035,
        "meta_element_set_no": 999,
        "meta_rev_at_epoch": 87842,
        "meta_bstar": 0.0034037189,
        "meta_mean_motion_dot": 0.00013861,
        "meta_mean_motion_ddot": 0,
        "tle_line1": "1 34035U 93036HW  25338.20651877  .00013861  00000+0  34037-2 0  9990",
        "tle_line2": "2 34035  74.0658   5.1850 0044139   8.7528 102.6253 14.51777673878423"
      },
      "geometry": {
        "type": "Point",
        "coordinates": [
          23.413586076797227,
          49.2626688221259
        ]
      }
    }
  ]
}